ONEWEB-0196             
1 48218U 21031J   25291.16248838 -.00000145  00000+0 -42555-3 0  9994
2 48218  87.9036 337.9216 0002028  96.9577 263.1783 13.14503295216433
ONEWEB-0183             
1 48219U 21031K   25291.13712563  .00000146  00000+0  35864-3 0  9997
2 48219  87.9033 337.9350 0001821  90.6477 269.4861 13.14502167216523
ONEWEB-0185             
1 48220U 21031L   25291.16327323 -.00000387  00000+0 -10771-2 0  9996
2 48220  87.9037 337.8979 0002054  86.8328 273.3037 13.14501583216458
ONEWEB-0187             
1 48221U 21031M   25291.14332823  .00000063  00000+0  13461-3 0  9995
2 48221  87.9035 337.9482 0002124  92.8641 267.2731 13.14504293216465
ONEWEB-0192             
1 48222U 21031N   25291.11333823  .00000211  00000+0  53499-3 0  9994
2 48222  87.9030 337.9464 0001955  99.4183 260.7168 13.14502327216374
ONEWEB-0219             
1 48223U 21031P   25291.16883536 -.00000211  00000+0 -60277-3 0  9995
2 48223  87.9035 337.9088 0002054  91.7653 268.3712 13.14503207216580
ONEWEB-0202             
1 48224U 21031Q   25291.14981628 -.00000099  00000+0 -30192-3 0  9992
2 48224  87.9036 337.9269 0002535 106.5152 253.6257 13.14501541216564
ONEWEB-0204             
1 48225U 21031R   25291.10777861  .00000161  00000+0  40022-3 0  9992
2 48225  87.9031 337.9233 0001708  88.9146 271.2179 13.14503079216453
